SL-14 R/B               
1 21423U 91042B   26026.62111938  .00000615  00000+0  74785-4 0  9991
2 21423  82.4912 259.6406 0017697  24.1379 336.0660 14.81788639846847
ERS-1                   
1 21574U 91050A   26026.50373839  .00000582  00000+0  20094-3 0  9990
2 21574  98.7898  43.6780 0031418 329.1557  30.7783 14.39410602809664
ARIANE 40 R/B           
1 21610U 91050F   26026.58561259  .00000572  00000+0  18372-3 0  9999
2 21610  98.2100  80.3844 0003029 179.4519 180.6675 14.42859316812927
INTERCOSMOS 25          
1 21819U 91086A   26026.79769266  .00002063  00000+0  40673-3 0  9996
2 21819  82.6091 335.3237 1486223 207.2060 144.2977 12.11884507491610
SL-8 R/B                
1 21876U 92008B   26026.68344727  .00000095  00000+0  82401-4 0  9992
2 21876  82.9285 299.0238 0033347 251.6227 130.3092 13.75968442703645
SL-8 R/B                
1 21938U 92020B   26026.50322082  .00000196  00000+0  18712-3 0  9991
2 21938  82.9308 185.0760 0030000  57.1224   3.2566 13.75541934695336
USA 81                  
1 21949U 92023A   26026.46449826  .00000370  00000+0  12975-3 0  9996
2 21949  85.0114 155.7859 0002211 113.4177 246.7248 14.32349969 88746
COSMOS 2219             
1 22219U 92076A   26026.50230050 -.00000195  00000+0 -77379-4 0  9994
2 22219  71.0610 106.2646 0020794 265.6444  94.2303 14.14080516712417
SL-16 R/B               
1 22220U 92076B   26026.61015889 -.00000078  00000+0 -14784-4 0  9990
2 22220  70.9994 277.0150 0012292 169.5185 206.4114 14.16850340715879
COSMOS 2221             
1 22236U 92080A   26026.76947037  .00003530  00000+0  31198-3 0  9998
2 22236  82.5063 319.2223 0013961 340.6411  19.4278 14.96009673774523
SL-16 R/B               
1 22285U 92093B   26026.62001353 -.00000012  00000+0  17992-4 0  9993
2 22285  71.0220  92.5851 0004588 339.1267  20.9668 14.15443639707206
COSMOS 2228             
1 22286U 92094A   26026.81319331  .00003219  00000+0  27662-3 0  9999
2 22286  82.5175 277.4065 0019628  83.0571 277.2883 14.96988030769794
